GSAT0213 (GALILEO 17)   
1 41861U 16069C   26064.72771417  .00000008  00000+0  00000+0 0  9992
2 41861  55.4302 103.9512 0005237 292.7393  67.2847  1.70474970 57751
GSAT0214 (GALILEO 18)   
1 41862U 16069D   26059.00795760  .00000007  00000+0  00000+0 0  9994
2 41862  55.4250 104.1026 0004132 296.1582  63.8775  1.70474701 57785
SES-15 (WAAS/PRN 133)   
1 42709U 17026A   26064.01780892  .00000050  00000+0  00000+0 0  9994
2 42709   0.0426 307.9199 0000713  39.5952  52.4724  1.00271060  6386
QZS-2 (QZSS/PRN 194)    
1 42738U 17028A   26064.73548161 -.00000170  00000+0  00000+0 0  9992
2 42738  39.5883 244.6601 0745487 270.3415  54.7958  1.00261653  6583
QZS-3 (QZSS/PRN 199)    
1 42917U 17048A   26064.73829411 -.00000355  00000+0  00000+0 0  9998
2 42917   0.0697 214.4992 0002288 143.6382 198.1087  1.00275676 31221
COSMOS 2522 (752)       
1 42939U 17055A   26064.41663584  .00000014  00000+0  00000+0 0  9993
2 42939  64.0788 195.4131 0007252 227.4330 132.4745  2.13101663 65766
QZS-4 (QZSS/PRN 195)    
1 42965U 17062A   26064.74126169 -.00000341  00000+0  00000+0 0  9993
2 42965  40.1722 344.8064 0748495 269.9150 316.0784  1.00280691 30764
BEIDOU-3 M1 (C19)       
1 43001U 17069A   26063.96368704 -.00000029  00000+0  00000+0 0  9991
2 43001  56.6017  66.5157 0012381 309.6653  50.2473  1.86231070 56664
BEIDOU-3 M2 (C20)       
1 43002U 17069B   26063.36523573 -.00000024  00000+0  00000+0 0  9998
2 43002  56.5998  66.5715 0009709 329.0395  30.9280  1.86230543 56644
GSAT0215 (GALILEO 19)   
1 43055U 17079A   26062.43085966  .00000010  00000+0  00000+0 0  9997
2 43055  55.1080 224.4135 0000631  13.1955 346.7446  1.70474475 51181
GSAT0216 (GALILEO 20)   
1 43056U 17079B   26060.96235113  .00000013  00000+0  00000+0 0  9998
2 43056  55.1088 224.4540 0001688 322.1798  37.7539  1.70474524 51175
GSAT0217 (GALILEO 21)   
1 43057U 17079C   26064.11599664  .00000014  00000+0  00000+0 0  9995
2 43057  55.1079 224.3651 0002088 356.0140   3.9214  1.70474546 51214
GSAT0218 (GALILEO 22)   
1 43058U 17079D   26063.74946031  .00000013  00000+0  00000+0 0  9997
2 43058  55.1048 224.3730 0001921 303.9467  55.9718  1.70474529 51236
BEIDOU-3 M7 (C27)       
1 43107U 18003A   26064.18114576 -.00000067  00000+0  00000+0 0  9990
2 43107  54.4201 305.9428 0004668  71.1796 288.9274  1.86232262 55416
BEIDOU-3 M8 (C28)       
1 43108U 18003B   26064.12671359 -.00000067  00000+0  00000+0 0  9992
2 43108  54.4128 305.9274 0003033 294.0648  65.9600  1.86230770 55420
BEIDOU-3 M4 (C22)       
1 43207U 18018A   26062.42109766 -.00000016  00000+0  00000+0 0  9991
2 43207  56.5592  66.6343 0006867 350.5022   9.5144  1.86230898 54773
BEIDOU-3 M3 (C21)       
1 43208U 18018B   26062.48754531 -.00000017  00000+0  00000+0 0  9995
2 43208  56.5588  66.6362 0009891 319.5859  40.3698  1.86231010 54777
